[
  {
    "OBJECT_NAME": "SKYSAT-B",
    "OBJECT_ID": "2014-037D",
    "EPOCH": "2025-05-31T19:00:27.739008",
    "MEAN_MOTION": 14.86502419,
    "ECCENTRICITY": 0.0007236,
    "INCLINATION": 98.3423,
    "RA_OF_ASC_NODE": 85.6671,
    "ARG_OF_PERICENTER": 77.2281,
    "MEAN_ANOMALY": 282.9742,
    "EPHEMERIS_TYPE": 0,
    "CLASSIFICATION_TYPE": "U",
    "NORAD_CAT_ID": 40072,
    "ELEMENT_SET_NO": 999,
    "REV_AT_EPOCH": 58935,
    "BSTAR": 0.00015205,
    "MEAN_MOTION_DOT": 1.285e-05,
    "MEAN_MOTION_DDOT": 0
  },
  {
    "OBJECT_NAME": "WORLDVIEW-3 (WV-3)",
    "OBJECT_ID": "2014-048A",
    "EPOCH": "2025-05-31T12:41:23.593056",
    "MEAN_MOTION": 14.85330466,
    "ECCENTRICITY": 0.0006874,
    "INCLINATION": 97.8587,
    "RA_OF_ASC_NODE": 226.1303,
    "ARG_OF_PERICENTER": 128.0388,
    "MEAN_ANOMALY": 232.1448,
    "EPHEMERIS_TYPE": 0,
    "CLASSIFICATION_TYPE": "U",
    "NORAD_CAT_ID": 40115,
    "ELEMENT_SET_NO": 999,
    "REV_AT_EPOCH": 58526,
    "BSTAR": 0.00013252,
    "MEAN_MOTION_DOT": 1.086e-05,
    "MEAN_MOTION_DDOT": 0
  },
  {
    "OBJECT_NAME": "GAOFEN-2",
    "OBJECT_ID": "2014-049A",
    "EPOCH": "2025-05-31T21:07:08.477472",
    "MEAN_MOTION": 14.80493727,
    "ECCENTRICITY": 0.0005204,
    "INCLINATION": 98.0602,
    "RA_OF_ASC_NODE": 210.4379,
    "ARG_OF_PERICENTER": 33.7567,
    "MEAN_ANOMALY": 326.3975,
    "EPHEMERIS_TYPE": 0,
    "CLASSIFICATION_TYPE": "U",
    "NORAD_CAT_ID": 40118,
    "ELEMENT_SET_NO": 999,
    "REV_AT_EPOCH": 58282,
    "BSTAR": 0.0001403,
    "MEAN_MOTION_DOT": 1.02e-05,
    "MEAN_MOTION_DDOT": 0
  },
  {
    "OBJECT_NAME": "YAOGAN-21",
    "OBJECT_ID": "2014-053A",
    "EPOCH": "2025-05-31T20:01:43.359168",
    "MEAN_MOTION": 15.23556743,
    "ECCENTRICITY": 0.0012819,
    "INCLINATION": 97.1993,
    "RA_OF_ASC_NODE": 203.2141,
    "ARG_OF_PERICENTER": 48.6405,
    "MEAN_ANOMALY": 311.5933,
    "EPHEMERIS_TYPE": 0,
    "CLASSIFICATION_TYPE": "U",
    "NORAD_CAT_ID": 40143,
    "ELEMENT_SET_NO": 999,
    "REV_AT_EPOCH": 59690,
    "BSTAR": 0.00031289,
    "MEAN_MOTION_DOT": 7.43e-05,
    "MEAN_MOTION_DDOT": 0
  },
  {
    "OBJECT_NAME": "YAOGAN-22",
    "OBJECT_ID": "2014-063A",
    "EPOCH": "2025-05-31T20:42:41.420160",
    "MEAN_MOTION": 13.15511319,
    "ECCENTRICITY": 0.0005961,
    "INCLINATION": 100.7152,
    "RA_OF_ASC_NODE": 292.7994,
    "ARG_OF_PERICENTER": 333.3952,
    "MEAN_ANOMALY": 26.6852,
    "EPHEMERIS_TYPE": 0,
    "CLASSIFICATION_TYPE": "U",
    "NORAD_CAT_ID": 40275,
    "ELEMENT_SET_NO": 999,
    "REV_AT_EPOCH": 50967,
    "BSTAR": 7.8546e-05,
    "MEAN_MOTION_DOT": -1.7e-07,
    "MEAN_MOTION_DDOT": 0
  },
  {
    "OBJECT_NAME": "ASNARO",
    "OBJECT_ID": "2014-070A",
    "EPOCH": "2025-05-31T19:45:49.909248",
    "MEAN_MOTION": 15.19510199,
    "ECCENTRICITY": 0.0004936,
    "INCLINATION": 97.3788,
    "RA_OF_ASC_NODE": 232.3062,
    "ARG_OF_PERICENTER": 82.9931,
    "MEAN_ANOMALY": 277.1865,
    "EPHEMERIS_TYPE": 0,
    "CLASSIFICATION_TYPE": "U",
    "NORAD_CAT_ID": 40298,
    "ELEMENT_SET_NO": 999,
    "REV_AT_EPOCH": 58611,
    "BSTAR": 0.00046863,
    "MEAN_MOTION_DOT": 9.893e-05,
    "MEAN_MOTION_DDOT": 0
  },
  {
    "OBJECT_NAME": "YAOGAN-24",
    "OBJECT_ID": "2014-072A",
    "EPOCH": "2025-05-31T20:49:28.346016",
    "MEAN_MOTION": 14.7618583,
    "ECCENTRICITY": 0.0015178,
    "INCLINATION": 98.0982,
    "RA_OF_ASC_NODE": 282.2299,
    "ARG_OF_PERICENTER": 54.3828,
    "MEAN_ANOMALY": 305.8793,
    "EPHEMERIS_TYPE": 0,
    "CLASSIFICATION_TYPE": "U",
    "NORAD_CAT_ID": 40310,
    "ELEMENT_SET_NO": 999,
    "REV_AT_EPOCH": 56748,
    "BSTAR": 0.0001314,
    "MEAN_MOTION_DOT": 8.57e-06,
    "MEAN_MOTION_DDOT": 0
  },
  {
    "OBJECT_NAME": "CBERS 4",
    "OBJECT_ID": "2014-079A",
    "EPOCH": "2025-05-31T20:09:08.800416",
    "MEAN_MOTION": 14.35505418,
    "ECCENTRICITY": 0.0001677,
    "INCLINATION": 98.3538,
    "RA_OF_ASC_NODE": 216.2041,
    "ARG_OF_PERICENTER": 66.7494,
    "MEAN_ANOMALY": 293.3869,
    "EPHEMERIS_TYPE": 0,
    "CLASSIFICATION_TYPE": "U",
    "NORAD_CAT_ID": 40336,
    "ELEMENT_SET_NO": 999,
    "REV_AT_EPOCH": 54926,
    "BSTAR": 6.4789e-05,
    "MEAN_MOTION_DOT": 1.44e-06,
    "MEAN_MOTION_DDOT": 0
  },
  {
    "OBJECT_NAME": "YAOGAN-26",
    "OBJECT_ID": "2014-088A",
    "EPOCH": "2025-05-31T20:34:03.158400",
    "MEAN_MOTION": 15.32489824,
    "ECCENTRICITY": 0.0005745,
    "INCLINATION": 97.0642,
    "RA_OF_ASC_NODE": 160.5483,
    "ARG_OF_PERICENTER": 13.9219,
    "MEAN_ANOMALY": 346.2181,
    "EPHEMERIS_TYPE": 0,
    "CLASSIFICATION_TYPE": "U",
    "NORAD_CAT_ID": 40362,
    "ELEMENT_SET_NO": 999,
    "REV_AT_EPOCH": 58049,
    "BSTAR": 0.00038923,
    "MEAN_MOTION_DOT": 0.00012149,
    "MEAN_MOTION_DDOT": 0
  },
  {
    "OBJECT_NAME": "SMAP",
    "OBJECT_ID": "2015-003A",
    "EPOCH": "2025-05-31T14:37:18.005088",
    "MEAN_MOTION": 14.63397458,
    "ECCENTRICITY": 0.0001796,
    "INCLINATION": 98.1275,
    "RA_OF_ASC_NODE": 159.0838,
    "ARG_OF_PERICENTER": 95.5433,
    "MEAN_ANOMALY": 264.5973,
    "EPHEMERIS_TYPE": 0,
    "CLASSIFICATION_TYPE": "U",
    "NORAD_CAT_ID": 40376,
    "ELEMENT_SET_NO": 999,
    "REV_AT_EPOCH": 55181,
    "BSTAR": 0.00010621,
    "MEAN_MOTION_DOT": 5.02e-06,
    "MEAN_MOTION_DDOT": 0
  },
  {
    "OBJECT_NAME": "KOMPSAT-3A",
    "OBJECT_ID": "2015-014A",
    "EPOCH": "2025-05-31T20:05:24.529344",
    "MEAN_MOTION": 15.36651114,
    "ECCENTRICITY": 0.0005854,
    "INCLINATION": 97.6562,
    "RA_OF_ASC_NODE": 117.0454,
    "ARG_OF_PERICENTER": 113.1114,
    "MEAN_ANOMALY": 247.0747,
    "EPHEMERIS_TYPE": 0,
    "CLASSIFICATION_TYPE": "U",
    "NORAD_CAT_ID": 40536,
    "ELEMENT_SET_NO": 999,
    "REV_AT_EPOCH": 56298,
    "BSTAR": 0.00036574,
    "MEAN_MOTION_DOT": 0.00013018,
    "MEAN_MOTION_DDOT": 0
  },
  {
    "OBJECT_NAME": "SENTINEL-2A",
    "OBJECT_ID": "2015-028A",
    "EPOCH": "2025-05-31T19:35:11.357952",
    "MEAN_MOTION": 14.30818184,
    "ECCENTRICITY": 0.0001279,
    "INCLINATION": 98.5696,
    "RA_OF_ASC_NODE": 227.1303,
    "ARG_OF_PERICENTER": 98.354,
    "MEAN_ANOMALY": 261.7788,
    "EPHEMERIS_TYPE": 0,
    "CLASSIFICATION_TYPE": "U",
    "NORAD_CAT_ID": 40697,
    "ELEMENT_SET_NO": 999,
    "REV_AT_EPOCH": 51919,
    "BSTAR": 7.0199e-05,
    "MEAN_MOTION_DOT": 1.4e-06,
    "MEAN_MOTION_DDOT": 0
  },
  {
    "OBJECT_NAME": "GAOFEN-8",
    "OBJECT_ID": "2015-030A",
    "EPOCH": "2025-05-31T19:43:30.042336",
    "MEAN_MOTION": 15.31903054,
    "ECCENTRICITY": 0.0013715,
    "INCLINATION": 97.6889,
    "RA_OF_ASC_NODE": 321.6634,
    "ARG_OF_PERICENTER": 112.2665,
    "MEAN_ANOMALY": 248.0032,
    "EPHEMERIS_TYPE": 0,
    "CLASSIFICATION_TYPE": "U",
    "NORAD_CAT_ID": 40701,
    "ELEMENT_SET_NO": 999,
    "REV_AT_EPOCH": 55281,
    "BSTAR": 0.00049369,
    "MEAN_MOTION_DOT": 0.00015182,
    "MEAN_MOTION_DDOT": 0
  },
  {
    "OBJECT_NAME": "CARBONITE 1 (CBNT-1)",
    "OBJECT_ID": "2015-032D",
    "EPOCH": "2025-05-31T19:30:44.512416",
    "MEAN_MOTION": 14.81743322,
    "ECCENTRICITY": 0.0016415,
    "INCLINATION": 97.6444,
    "RA_OF_ASC_NODE": 341.5801,
    "ARG_OF_PERICENTER": 104.1901,
    "MEAN_ANOMALY": 256.1137,
    "EPHEMERIS_TYPE": 0,
    "CLASSIFICATION_TYPE": "U",
    "NORAD_CAT_ID": 40718,
    "ELEMENT_SET_NO": 999,
    "REV_AT_EPOCH": 53283,
    "BSTAR": 0.00025333,
    "MEAN_MOTION_DOT": 1.952e-05,
    "MEAN_MOTION_DDOT": 0
  }
]