SKYSAT-B                
1 40072U 14037D   25151.79198772  .00001285  00000+0  15205-3 0  9993
2 40072  98.3423  85.6671 0007236  77.2281 282.9742 14.86502419589356
WORLDVIEW-3 (WV-3)      
1 40115U 14048A   25151.52874529  .00001086  00000+0  13252-3 0  9994
2 40115  97.8587 226.1303 0006874 128.0388 232.1448 14.85330466585269
GAOFEN-2                
1 40118U 14049A   25151.87995923  .00001020  00000+0  14030-3 0  9991
2 40118  98.0602 210.4379 0005204  33.7567 326.3975 14.80493727582824
YAOGAN-21               
1 40143U 14053A   25151.83452962  .00007430  00000+0  31289-3 0  9997
2 40143  97.1993 203.2141 0012819  48.6405 311.5933 15.23556743596908
YAOGAN-22               
1 40275U 14063A   25151.86297940 -.00000017  00000+0  78546-4 0  9993
2 40275 100.7152 292.7994 0005961 333.3952  26.6852 13.15511319509673
ASNARO                  
1 40298U 14070A   25151.82349432  .00009893  00000+0  46863-3 0  9992
2 40298  97.3788 232.3062 0004936  82.9931 277.1865 15.19510199586117
YAOGAN-24               
1 40310U 14072A   25151.86768919  .00000857  00000+0  13140-3 0  9991
2 40310  98.0982 282.2299 0015178  54.3828 305.8793 14.76185830567480
CBERS 4                 
1 40336U 14079A   25151.83968519  .00000144  00000+0  64789-4 0  9996
2 40336  98.3538 216.2041 0001677  66.7494 293.3869 14.35505418549269
YAOGAN-26               
1 40362U 14088A   25151.85698100  .00012149  00000+0  38923-3 0  9991
2 40362  97.0642 160.5483 0005745  13.9219 346.2181 15.32489824580495
SMAP                    
1 40376U 15003A   25151.60923617  .00000502  00000+0  10621-3 0  9996
2 40376  98.1275 159.0838 0001796  95.5433 264.5973 14.63397458551816
KOMPSAT-3A              
1 40536U 15014A   25151.83708946  .00013018  00000+0  36574-3 0  9998
2 40536  97.6562 117.0454 0005854 113.1114 247.0747 15.36651114562985
SENTINEL-2A             
1 40697U 15028A   25151.81610368  .00000140  00000+0  70199-4 0  9993
2 40697  98.5696 227.1303 0001279  98.3540 261.7788 14.30818184519199
GAOFEN-8                
1 40701U 15030A   25151.82187549  .00015182  00000+0  49369-3 0  9999
2 40701  97.6889 321.6634 0013715 112.2665 248.0032 15.31903054552817
CARBONITE 1 (CBNT-1)    
1 40718U 15032D   25151.81301519  .00001952  00000+0  25333-3 0  9998
2 40718  97.6444 341.5801 0016415 104.1901 256.1137 14.81743322532832
